NOAA 2 (ITOS-D)
1 06235U 72082A   25028.78894384 -.00000017  00000-0  18825-3 0  9999
2 06235 102.0237  36.4177 0004159  54.1000 124.7475 12.53194778391763
SOLRAD-7B
1 01291U 65016D   25028.29566943  .00000083  00000-0  10027-3 0  9996
2 01291  70.0771 229.6030 0018505  60.3939 299.9008 13.94878869 46299
OSCAR-7 (AO-7)
1 07530U 74089B   25028.76465907 -.00000029  00000-0  10937-3 0  9999
2 07530 101.9922  31.6303 0012249  14.8361 162.0913 12.53685574297307
UOSAT-2 (UO-11)
1 14781U 84021B   25029.16066972  .00003298  00000-0  35972-3 0  9992
2 14781  97.7367 358.3380 0009251  57.5789 302.6322 14.88579476203080
FLTSATCOM-7 (USA-20)
1 17181U 86096A   25028.55466022 -.00000104  00000-0  00000-0 0  9990
2 17181  13.1122 343.2884 0042322 317.3763 218.9546  0.98929993146975
FLTSATCOM-8 (USA-46)
1 20253U 89077A   25027.30188242 -.00000353  00000-0  00000-0 0  9999
2 20253  12.5650 354.1959 0007347 306.4821  60.2774  1.00262553255499
OSCAR 16 (PACSAT)
1 20439U 90005D   25028.28189294  .00000423  00000-0  16952-3 0  9997
2 20439  98.8974  45.7366 0009586 272.7002  98.8079 14.33665898829838
LUSAT (LO-19)
1 20442U 90005G   25028.50419422  .00000449  00000-0  17809-3 0  9995
2 20442  98.8971  30.9205 0010673 243.4507 116.5582 14.33844326830127
UFO 2 (USA 95)
1 22787U 93056A   25029.11674462  .00000136  00000-0  00000+0 0  9997
2 22787  11.7249   6.2184 0003295 316.2323 236.8599  1.00275536113604
EYESAT-1 (AO-27)
1 22825U 93061C   25028.39497426  .00000310  00000-0  13562-3 0  9993
2 22825  98.7577  89.1767 0009154 135.6220 224.5697 14.30717266634814
ITAMSAT (IO-26) 
1 22826U 93061D   25028.45156120  .00000347  00000-0  14847-3 0  9991
2 22826  98.7524  89.1074 0009847 121.5829 238.6316 14.31121822635369
UFO 3 (USA 104)
1 23132U 94035A   25029.04975976  .00000106  00000-0  00000+0 0  9993
2 23132  12.1433   8.6534 0004884 268.7017 279.9513  1.00163129126635
RADIO ROSTO (RS-15)
1 23439U 94085A   25028.82894903 -.00000051  00000-0 -24178-3 0  9990
2 23439  64.8172  38.8671 0145516 100.1425 261.5947 11.27579732239034
UFO 4 (USA 108)
1 23467U 95003A   25028.69667515 -.00000012  00000-0  00000-0 0  9995
2 23467   9.6707  14.7981 0003203 263.8596 272.5813  1.00269129109895
UFO 7 (USA 127)
1 23967U 96042A   25028.81673148 -.00000272  00000-0  00000-0 0  9995
2 23967  10.6331  19.6334 0004056 109.0456 250.0168  1.00328843104421
JAS-2 (FO-29)
1 24278U 96046B   25028.25882193  .00000064  00000-0  10393-3 0  9992
2 24278  98.5884 299.4792 0349513 325.4936  32.3952 13.53234175405126
UFO 8 (USA 138)
1 25258U 98016A   25027.15535495  .00000143  00000-0  00000+0 0  9996
2 25258  10.5161  25.6077 0009183 243.3844 310.8532  1.00371147 98502
TECHSAT-1B (GO-32)
1 25397U 98043D   25028.69188644  .00000256  00000-0  13102-3 0  9996
2 25397  98.9544   5.1753 0000820 175.6819 184.4366 14.24243096379517
ISS (ZARYA)
1 25544U 98067A   25029.17252947  .00018714  00000-0  32727-3 0  9990
2 25544  51.6366 275.5953 0002090 149.6450 210.4660 15.50672532493602
UFO 10 (USA 146)
1 25967U 99063A   25028.30257625 -.00000177  00000-0  00000-0 0  9999
2 25967   9.6049  29.6733 0006535 257.3054 286.9828  1.00269294 92281
PCSAT (NO-44)
1 26931U 01043C   25028.47259673  .00000488  00000-0  21418-3 0  9998
2 26931  67.0509 109.3766 0006162 262.4666  97.5736 14.31599858218190
PROBA-1
1 26958U 01049B   25029.15801097  .00006564  00000-0  46165-3 0  9999
2 26958  97.9389  16.7754 0059630  25.7175 334.6993 15.03984772267825
SAUDISAT-1C (SO-50)
1 27607U 02058C   25028.97147188  .00002888  00000-0  38634-3 0  9992
2 27607  64.5528 246.5598 0040322   8.0995 352.0752 14.80854516189942
CUTE-1 (CO-55)
1 27844U 03031E   25028.99566427  .00000870  00000-0  39933-3 0  9992
2 27844  98.6783  38.9656 0009220 203.6648 156.4107 14.23791598119944
CUBESAT XI-IV (CO-57)
1 27848U 03031J   25028.46193260  .00000703  00000-0  33040-3 0  9997
2 27848  98.6809  38.5415 0008807 223.1888 136.8600 14.23155215119578
MOZHAYETS-4 (RS-22)
1 27939U 03042A   25029.15265111  .00003021  00000-0  49268-3 0  9997
2 27939  98.3111 195.5833 0012590  67.9292  43.0756 14.71669959141492
UFO 11 (USA 174)
1 28117U 03057A   25029.05462507 -.00000093  00000-0  00000+0 0  9993
2 28117   8.4256  36.0121 0004073 259.8426 287.6636  1.00273302 77368
CUBESAT XI-V (CO-58)
1 28895U 05043F   25029.13236108  .00004240  00000-0  71355-3 0  9990
2 28895  98.2269 172.0895 0015004   7.2700 352.8721 14.70034078 27852
CAPE-1
1 31130U 07012P   25029.13310052  .00003190  00000-0  60664-3 0  9999
2 31130  98.3811 347.9721 0086308 202.7346 157.0023 14.62492888944593
CUTE-1.7+APD II (CO-65)
1 32785U 08021C   25028.88014325  .00009556  00000-0  73560-3 0  9993
2 32785  97.7658 359.4346 0008579 307.4479  52.5964 15.01856942909365
SEEDS-II (CO-66)
1 32791U 08021J   25028.98037272  .00021882  00000-0  12317-2 0  9995
2 32791  97.7155   6.6920 0001976 246.8085 113.2937 15.13256473910639
YUBILEINY (RS-30)
1 32953U 08025A   25029.14020405  .00000037  00000-0  19557-3 0  9991
2 32953  82.5057 308.9454 0019462 335.3913  24.6236 12.43157952757206
PRISM (HITOMI)
1 33493U 09002B   25029.16195985  .00133686  00000-0  23662-2 0  9993
2 33493  98.1668 106.1901 0006197 194.3609 165.7465 15.49789597873630
KKS-1 (KISEKI)
1 33499U 09002H   25028.86675854  .00003732  00000-0  49089-3 0  9993
2 33499  98.1279 299.1755 0009492 117.6919 242.5257 14.80779011861495
SWISSCUBE
1 35932U 09051B   25029.14160758  .00003092  00000-0  64441-3 0  9993
2 35932  98.4464 282.8585 0006901 350.1427   9.9636 14.60691219815562
BEESAT
1 35933U 09051C   25028.65582282  .00002267  00000-0  48040-3 0  9999
2 35933  98.4391 282.9436 0005639   7.3270 352.8010 14.60197102815515
ITUPSAT-1
1 35935U 09051E   25029.11443970  .00002404  00000-0  52170-3 0  9995
2 35935  98.4488 283.0540 0007990   9.9045 350.2309 14.59042553815220
PROBA-2
1 36037U 09059B   25028.76669486  .00000782  00000-0  19435-3 0  9993
2 36037  98.2321 214.5211 0013986  42.2059 318.0212 14.54388200808199
XIWANG-1 (HOPE-1)
1 36122U 09072B   25029.13789288 -.00000003  00000-0  10831-3 0  9996
2 36122 100.3305 347.8012 0007041 309.6759  50.3733 13.16418060726785
EWS-G2 (GOES-15)
1 36411U 10008A   25028.79702244  .00000046  00000-0  00000-0 0  9996
2 36411   0.0051 310.5600 0005549 319.3184 206.9609  1.00277286 54587
TISAT-1
1 36799U 10035E   25028.23440057  .00019157  00000-0  11361-2 0  9992
2 36799  98.0686 294.5025 0003538 160.9321 199.2040 15.11407036790943
HORYU-2
1 38340U 12025D   25028.26721515  .00007006  00000-0  81106-3 0  9996
2 38340  98.1687 139.2134 0009645  34.3570 325.8266 14.85798840684013
AAUSAT-3
1 39087U 13009B   25029.08525697  .00002003  00000-0  66507-3 0  9992
2 39087  98.3638 219.8244 0010843 287.8314  72.1691 14.38801227624975
STRAND-1
1 39090U 13009E   25029.05054680  .00000937  00000-0  33297-3 0  9996
2 39090  98.3782 217.2111 0007892 302.0346  58.0074 14.36608699624681
CUBEBUG-1 (CAPITAN BETO)
1 39153U 13018D   25028.92929052  .00008973  00000-0  89453-3 0  9998
2 39153  98.0979 165.4319 0013532  16.6122 343.5536 14.91749018635812
PROBA-V
1 39159U 13021A   25029.22117219  .00000245  00000-0  12596-3 0  9994
2 39159  98.3144  29.2195 0004573 154.3779 205.7628 14.23424748609410
ZACUBE-1 (TSHEPISOSAT)
1 39417U 13066B   25029.12086155  .00008729  00000-0  80086-3 0  9997
2 39417  97.7643 347.1789 0047551 129.3099 231.2352 14.94234718605266
TRITON-1
1 39427U 13066M   25029.10345374  .00006730  00000-0  87594-3 0  9998
2 39427  97.8422 306.3080 0098643  73.0060 288.1932 14.77544895599724
DELFI-N3XT
1 39428U 13066N   25028.26106679  .00013020  00000-0  14200-2 0  9991
2 39428  97.8387 307.6800 0092046  75.5504 285.5904 14.84973288599416
GOMX-1
1 39430U 13066Q   25029.06980211  .00005579  00000-0  88666-3 0  9993
2 39430  97.7008 255.7321 0133274 253.0098 105.6466 14.66645888596121
HUMSAT-D
1 39433U 13066T   25028.97040657  .00039015  00000-0  16030-2 0  9993
2 39433  97.5002  23.5635 0012206 212.9313 147.1165 15.24011965610133
VELOX-PII
1 39438U 13066Y   25029.07653585  .00007265  00000-0  76949-3 0  9998
2 39438  97.8156 338.5622 0057218 207.7356 152.0806 14.88221314603855
CUBEBUG-2 (LO-74)
1 39440U 13066AA  25027.75683833  .00007122  00000-0  75652-3 0  9995
2 39440  97.8364 333.5408 0062783 257.5929 101.8256 14.87868940601678
FUNCUBE-1 (AO-73)
1 39444U 13066AE  25029.13388211  .00013255  00000-0  10823-2 0  9997
2 39444  97.7484 351.1507 0043801 105.6738 254.9323 14.98774269604468
UWE-3
1 39446U 13066AG  25028.41370133  .00008194  00000-0  81615-3 0  9997
2 39446  97.8091 340.3968 0054913 195.1385 164.8193 14.90730886602791
UNISAT-6
1 40012U 14033C   25028.90799475  .00007412  00000-0  88840-3 0  9990
2 40012  97.7219 189.0455 0048432 287.7448  71.8484 14.83510720571261
DUCHIFAT-1
1 40021U 14033M   25028.93678501  .00033621  00000-0  15504-2 0  9996
2 40021  98.1005  32.6325 0012252  59.4937 300.7504 15.20114489578264
FUNCUBE-3 (EO-79)
1 40025U 14033R   25029.17004280  .00015130  00000-0  10177-2 0  9990
2 40025  98.0702   4.9037 0012998 132.5959 227.6366 15.06777398577335
SMAP
1 40376U 15003A   25028.94249703  .00001440  00000-0  28808-3 0  9992
2 40376  98.1295  38.1392 0001662  88.5433 271.5960 14.63317694533878
XW-2C
1 40906U 15049H   25029.05045135  .00420271  70332-4  12413-2 0  9997
2 40906  97.4403  62.9636 0004121 160.3216 199.8217 15.92574689519656
LILACSAT-2
1 40908U 15049K   25029.14627362  .00018548  00000-0  55970-3 0  9994
2 40908  97.5163  46.6624 0008273 271.8714  88.1581 15.34300618518042
LAPAN-A2 (IO-86)
1 40931U 15052B   25029.03811298  .00001879  00000-0  16388-3 0  9994
2 40931   5.9985 178.0957 0012329  44.5838 315.5281 14.78544596505043
LQSAT
1 40958U 15057A   25029.06869935  .00001571  00000-0  23626-3 0  9994
2 40958  97.6592  43.3333 0018812 107.2648 253.0623 14.75682102500915
PRATHAM
1 41783U 16059A   25029.07357845  .00002199  00000-0  40701-3 0  9997
2 41783  97.8276  43.8422 0032536  25.7830 334.4987 14.65959217445629
